GLOBALSTAR M075         
1 37192U 10054E   24184.95546742 -.00000088  00000+0  85393-4 0  9991
2 37192  51.9922 164.8696 0000120  36.9804 353.6828 12.62261351631908
GLOBALSTAR M073         
1 37193U 10054F   24185.46175675 -.00000099  00000+0  27142-4 0  9992
2 37193  52.0067  76.8829 0000685  47.9016 123.1559 12.62266552633848
GLOBALSTAR M083         
1 37739U 11033A   24185.51990297 -.00000079  00000+0  13908-3 0  9999
2 37739  51.9874  25.9114 0000793  96.9867 280.3365 12.62261624603188
GLOBALSTAR M088         
1 37740U 11033B   24185.57171363 -.00000095  00000+0  46807-4 0  9995
2 37740  51.9741 291.5402 0000718 139.8943 232.9049 12.62264694598661
GLOBALSTAR M091         
1 37741U 11033C   24185.52650528 -.00000077  00000+0  14727-3 0  9991
2 37741  51.9988 254.6120 0000715 162.1557 303.6860 12.62264402599417
GLOBALSTAR M085         
1 37742U 11033D   24185.52479708 -.00000075  00000+0  16260-3 0  9993
2 37742  51.9838 205.9606 0000355 180.0315 339.5279 12.62263178600156
GLOBALSTAR M081         
1 37743U 11033E   24184.84125447 -.00000066  00000+0  20860-3 0  9997
2 37743  51.9930 210.6153 0000383 214.4890 316.5733 12.62266638599725
GLOBALSTAR M089         
1 37744U 11033F   24184.92805219 -.00000090  00000+0  75944-4 0  9990
2 37744  51.9904 164.6451 0000467 349.7954  34.4697 12.62265594600584
